{"type": "FeatureCollection", "features": [ {"type": "Feature", "properties": {"norad_id": 30703, "name": "FENGYUN 1C DEB", "group": "fengyun-1c-debris", "lat": -22.602057072991958, "lon": 163.35127953105984, "alt_km": 774.4360591775767, "timestamp": "2025-12-27T16:33:30.500645+00:00", "meta": {"OBJECT_NAME": "FENGYUN 1C DEB", "OBJECT_ID": "1999-025ARM", "EPOCH": "2025-12-27T11:14:44.148192", "MEAN_MOTION": 14.19391114, "ECCENTRICITY": 0.0116901, "INCLINATION": 99.1438, "RA_OF_ASC_NODE": 346.9674, "ARG_OF_PERICENTER": 250.1239, "MEAN_ANOMALY": 263.1131, "EPHEMERIS_TYPE": 0, "CLASSIFICATION_TYPE": "U", "NORAD_CAT_ID": 30703, "ELEMENT_SET_NO": 999, "REV_AT_EPOCH": 96749, "BSTAR": 0.0010296, "MEAN_MOTION_DOT": 2.27e-05, "MEAN_MOTION_DDOT": 0}, "tle": {"line1": "1 30703U 99025ARM 25361.46856653  .00002270  00000+0  10296-2 0  9998", "line2": "2 30703  99.1438 346.9674 0116901 250.1239 263.1131 14.19391114967494"}}, "geometry": {"type": "Point", "coordinates": [163.35127953105984, -22.602057072991958]}}, {"type": "Feature", "properties": {"norad_id": 30704, "name": "FENGYUN 1C DEB", "group": "fengyun-1c-debris", "lat": -63.252987506466425, "lon": 18.088633592007273, "alt_km": 926.0321115668858, "timestamp": "2025-12-27T16:33:30.500687+00:00", "meta": {"OBJECT_NAME": "FENGYUN 1C DEB", "OBJECT_ID": "1999-025ARN", "EPOCH": "2025-12-27T12:20:07.681056", "MEAN_MOTION": 14.02067189, "ECCENTRICITY": 0.0082054, "INCLINATION": 98.874, "RA_OF_ASC_NODE": 359.8586, "ARG_OF_PERICENTER": 58.9964, "MEAN_ANOMALY": 69.5304, "EPHEMERIS_TYPE": 0, "CLASSIFICATION_TYPE": "U", "NORAD_CAT_ID": 30704, "ELEMENT_SET_NO": 999, "REV_AT_EPOCH": 96318, "BSTAR": 0.0003116, "MEAN_MOTION_DOT": 4.47e-06, "MEAN_MOTION_DDOT": 0}, "tle": {"line1": "1 30704U 99025ARN 25361.51397779  .00000447  00000+0  31160-3 0  9992", "line2": "2 30704  98.8740 359.8586 0082054  58.9964  69.5304 14.02067189963188"}}, "geometry": {"type": "Point", "coordinates": [18.088633592007273, -63.252987506466425]}}, {"type": "Feature", "properties": {"norad_id": 30705, "name": "FENGYUN 1C DEB", "group": "fengyun-1c-debris", "lat": -33.245131930665, "lon": 118.29984491659037, "alt_km": 934.0083759757608, "timestamp": "2025-12-27T16:33:30.500701+00:00", "meta": {"OBJECT_NAME": "FENGYUN 1C DEB", "OBJECT_ID": "1999-025ARP", "EPOCH": "2025-12-26T18:53:35.664576", "MEAN_MOTION": 13.81399708, "ECCENTRICITY": 0.0201452, "INCLINATION": 102.1793, "RA_OF_ASC_NODE": 108.9998, "ARG_OF_PERICENTER": 249.0347, "MEAN_ANOMALY": 267.5724, "EPHEMERIS_TYPE": 0, "CLASSIFICATION_TYPE": "U", "NORAD_CAT_ID": 30705, "ELEMENT_SET_NO": 999, "REV_AT_EPOCH": 94203, "BSTAR": 0.0025708705, "MEAN_MOTION_DOT": 3.123e-05, "MEAN_MOTION_DDOT": 0}, "tle": {"line1": "1 30705U 99025ARP 25360.78721834  .00003123  00000+0  25709-2 0  9999", "line2": "2 30705 102.1793 108.9998 0201452 249.0347 267.5724 13.81399708942037"}}, "geometry": {"type": "Point", "coordinates": [118.29984491659037, -33.245131930665]}}, {"type": "Feature", "properties": {"norad_id": 30706, "name": "FENGYUN 1C DEB", "group": "fengyun-1c-debris", "lat": 18.008865160735123, "lon": 79.79885215276737, "alt_km": 798.9800492003151, "timestamp": "2025-12-27T16:33:30.500713+00:00", "meta": {"OBJECT_NAME": "FENGYUN 1C DEB", "OBJECT_ID": "1999-025ARQ", "EPOCH": "2025-12-27T10:45:20.930688", "MEAN_MOTION": 14.26483435, "ECCENTRICITY": 0.0027288, "INCLINATION": 99.0662, "RA_OF_ASC_NODE": 256.5732, "ARG_OF_PERICENTER": 86.4628, "MEAN_ANOMALY": 273.9672, "EPHEMERIS_TYPE": 0, "CLASSIFICATION_TYPE": "U", "NORAD_CAT_ID": 30706, "ELEMENT_SET_NO": 999, "REV_AT_EPOCH": 97837, "BSTAR": 0.00092269, "MEAN_MOTION_DOT": 2.185e-05, "MEAN_MOTION_DDOT": 0}, "tle": {"line1": "1 30706U 99025ARQ 25361.44815892  .00002185  00000+0  92269-3 0  9995", "line2": "2 30706  99.0662 256.5732 0027288  86.4628 273.9672 14.26483435978371"}}, "geometry": {"type": "Point", "coordinates": [79.79885215276737, 18.008865160735123]}}, {"type": "Feature", "properties": {"norad_id": 30707, "name": "FENGYUN 1C DEB", "group": "fengyun-1c-debris", "lat": 47.260029767343944, "lon": 46.842598364332304, "alt_km": 780.3289485846881, "timestamp": "2025-12-27T16:33:30.500723+00:00", "meta": {"OBJECT_NAME": "FENGYUN 1C DEB", "OBJECT_ID": "1999-025ARR", "EPOCH": "2025-12-27T10:10:11.587872", "MEAN_MOTION": 14.26784685, "ECCENTRICITY": 0.0026861, "INCLINATION": 99.4118, "RA_OF_ASC_NODE": 56.897, "ARG_OF_PERICENTER": 27.1318, "MEAN_ANOMALY": 94.428, "EPHEMERIS_TYPE": 0, "CLASSIFICATION_TYPE": "U", "NORAD_CAT_ID": 30707, "ELEMENT_SET_NO": 999, "REV_AT_EPOCH": 97012, "BSTAR": 0.0015063, "MEAN_MOTION_DOT": 3.615e-05, "MEAN_MOTION_DDOT": 0}, "tle": {"line1": "1 30707U 99025ARR 25361.42374523  .00003615  00000+0  15063-2 0  9990", "line2": "2 30707  99.4118  56.8970 0026861  27.1318  94.4280 14.26784685970128"}}, "geometry": {"type": "Point", "coordinates": [46.842598364332304, 47.260029767343944]}}, {"type": "Feature", "properties": {"norad_id": 30708, "name": "FENGYUN 1C DEB", "group": "fengyun-1c-debris", "lat": 47.28711281584253, "lon": 5.332332508575904, "alt_km": 849.2425273872132, "timestamp": "2025-12-27T16:33:30.500734+00:00", "meta": {"OBJECT_NAME": "FENGYUN 1C DEB", "OBJECT_ID": "1999-025ARS", "EPOCH": "2025-12-26T23:37:15.393216", "MEAN_MOTION": 14.12187396, "ECCENTRICITY": 0.000877, "INCLINATION": 98.6899, "RA_OF_ASC_NODE": 14.184, "ARG_OF_PERICENTER": 154.5863, "MEAN_ANOMALY": 267.7597, "EPHEMERIS_TYPE": 0, "CLASSIFICATION_TYPE": "U", "NORAD_CAT_ID": 30708, "ELEMENT_SET_NO": 999, "REV_AT_EPOCH": 97037, "BSTAR": 0.00018755, "MEAN_MOTION_DOT": 3.02e-06, "MEAN_MOTION_DDOT": 0}, "tle": {"line1": "1 30708U 99025ARS 25360.98420594  .00000302  00000+0  18755-3 0  9993", "line2": "2 30708  98.6899  14.1840 0008770 154.5863 267.7597 14.12187396970372"}}, "geometry": {"type": "Point", "coordinates": [5.332332508575904, 47.28711281584253]}}, {"type": "Feature", "properties": {"norad_id": 30709, "name": "FENGYUN 1C DEB", "group": "fengyun-1c-debris", "lat": 5.538254818216823, "lon": -20.81578592327375, "alt_km": 879.2091623455726, "timestamp": "2025-12-27T16:33:30.500744+00:00", "meta": {"OBJECT_NAME": "FENGYUN 1C DEB", "OBJECT_ID": "1999-025ART", "EPOCH": "2025-12-27T04:40:27.435072", "MEAN_MOTION": 14.17618588, "ECCENTRICITY": 0.0081397, "INCLINATION": 99.146, "RA_OF_ASC_NODE": 339.5697, "ARG_OF_PERICENTER": 228.7672, "MEAN_ANOMALY": 130.6468, "EPHEMERIS_TYPE": 0, "CLASSIFICATION_TYPE": "U", "NORAD_CAT_ID": 30709, "ELEMENT_SET_NO": 999, "REV_AT_EPOCH": 96201, "BSTAR": 0.0024809, "MEAN_MOTION_DOT": 5.167e-05, "MEAN_MOTION_DDOT": 0}, "tle": {"line1": "1 30709U 99025ART 25361.19476198  .00005167  00000+0  24809-2 0  9999", "line2": "2 30709  99.1460 339.5697 0081397 228.7672 130.6468 14.17618588962019"}}, "geometry": {"type": "Point", "coordinates": [-20.81578592327375, 5.538254818216823]}}, {"type": "Feature", "properties": {"norad_id": 30710, "name": "FENGYUN 1C DEB", "group": "fengyun-1c-debris", "lat": 67.64886843778127, "lon": -136.88695676237413, "alt_km": 755.8049732071304, "timestamp": "2025-12-27T16:33:30.500755+00:00", "meta": {"OBJECT_NAME": "FENGYUN 1C DEB", "OBJECT_ID": "1999-025ARU", "EPOCH": "2025-12-26T13:14:02.269824", "MEAN_MOTION": 13.94263604, "ECCENTRICITY": 0.0225362, "INCLINATION": 102.7465, "RA_OF_ASC_NODE": 254.9488, "ARG_OF_PERICENTER": 50.5449, "MEAN_ANOMALY": 67.9904, "EPHEMERIS_TYPE": 0, "CLASSIFICATION_TYPE": "U", "NORAD_CAT_ID": 30710, "ELEMENT_SET_NO": 999, "REV_AT_EPOCH": 94981, "BSTAR": 0.0028568, "MEAN_MOTION_DOT": 4.617e-05, "MEAN_MOTION_DDOT": 0}, "tle": {"line1": "1 30710U 99025ARU 25360.55141516  .00004617  00000+0  28568-2 0  9998", "line2": "2 30710 102.7465 254.9488 0225362  50.5449  67.9904 13.94263604949819"}}, "geometry": {"type": "Point", "coordinates": [-136.88695676237413, 67.64886843778127]}}, {"type": "Feature", "properties": {"norad_id": 30714, "name": "FENGYUN 1C DEB", "group": "fengyun-1c-debris", "lat": 0.9752075720265593, "lon": -130.06452448041816, "alt_km": 861.5076296628131, "timestamp": "2025-12-27T16:33:30.500765+00:00", "meta": {"OBJECT_NAME": "FENGYUN 1C DEB", "OBJECT_ID": "1999-025ARY", "EPOCH": "2025-12-26T21:44:37.711392", "MEAN_MOTION": 14.03309915, "ECCENTRICITY": 0.006725, "INCLINATION": 98.8345, "RA_OF_ASC_NODE": 49.0226, "ARG_OF_PERICENTER": 242.519, "MEAN_ANOMALY": 298.8189, "EPHEMERIS_TYPE": 0, "CLASSIFICATION_TYPE": "U", "NORAD_CAT_ID": 30714, "ELEMENT_SET_NO": 999, "REV_AT_EPOCH": 96191, "BSTAR": 0.00050823, "MEAN_MOTION_DOT": 7.66e-06, "MEAN_MOTION_DDOT": 0}, "tle": {"line1": "1 30714U 99025ARY 25360.90599203  .00000766  00000+0  50823-3 0  9992", "line2": "2 30714  98.8345  49.0226 0067250 242.5190 298.8189 14.03309915961916"}}, "geometry": {"type": "Point", "coordinates": [-130.06452448041816, 0.9752075720265593]}}, {"type": "Feature", "properties": {"norad_id": 30715, "name": "FENGYUN 1C DEB", "group": "fengyun-1c-debris", "lat": -60.355708610971625, "lon": 87.05731884241158, "alt_km": 898.0595301672074, "timestamp": "2025-12-27T16:33:30.500776+00:00", "meta": {"OBJECT_NAME": "FENGYUN 1C DEB", "OBJECT_ID": "1999-025ARZ", "EPOCH": "2025-12-27T03:16:27.399936", "MEAN_MOTION": 14.14793374, "ECCENTRICITY": 0.00671245, "INCLINATION": 98.9753, "RA_OF_ASC_NODE": 70.3776, "ARG_OF_PERICENTER": 128.3639, "MEAN_ANOMALY": 232.359, "EPHEMERIS_TYPE": 0, "CLASSIFICATION_TYPE": "U", "NORAD_CAT_ID": 30715, "ELEMENT_SET_NO": 999, "REV_AT_EPOCH": 96385, "BSTAR": 0.0021012809, "MEAN_MOTION_DOT": 4.098e-05, "MEAN_MOTION_DDOT": 0}, "tle": {"line1": "1 30715U 99025ARZ 25361.13642824  .00004098  00000+0  21013-2 0  9997", "line2": "2 30715  98.9753  70.3776 0067124 128.3639 232.3590 14.14793374963859"}}, "geometry": {"type": "Point", "coordinates": [87.05731884241158, -60.355708610971625]}}]}